[
    {
        "OBJECT_NAME": "IRIDIUM 174",
        "OBJECT_ID": "2023-068U",
        "EPOCH": "2025-05-16T02:03:14.256288",
        "MEAN_MOTION": 14.7226589,
        "ECCENTRICITY": 0.0001276,
        "INCLINATION": 86.6122,
        "RA_OF_ASC_NODE": 159.6966,
        "ARG_OF_PERICENTER": 70.3939,
        "MEAN_ANOMALY": 289.7416,
        "EPHEMERIS_TYPE": 0,
        "CLASSIFICATION_TYPE": "U",
        "NORAD_CAT_ID": 56728,
        "ELEMENT_SET_NO": 999,
        "REV_AT_EPOCH": 10759,
        "BSTAR": 0.000126,
        "MEAN_MOTION_DOT": 8.22e-06,
        "MEAN_MOTION_DDOT": 0,
        "period": 1.625687629,
        "radius": 7017864.429,
        "altitude": 639.8644288,
        "angle": 149.5371815
    },
    {
        "OBJECT_NAME": "IRIDIUM 178",
        "OBJECT_ID": "2023-068V",
        "EPOCH": "2025-05-16T05:16:33.800160",
        "MEAN_MOTION": 14.80224406,
        "ECCENTRICITY": 0.0002225,
        "INCLINATION": 86.6592,
        "RA_OF_ASC_NODE": 191.1671,
        "ARG_OF_PERICENTER": 88.9255,
        "MEAN_ANOMALY": 271.2222,
        "EPHEMERIS_TYPE": 0,
        "CLASSIFICATION_TYPE": "U",
        "NORAD_CAT_ID": 56729,
        "ELEMENT_SET_NO": 999,
        "REV_AT_EPOCH": 10764,
        "BSTAR": 0.00013,
        "MEAN_MOTION_DOT": 1.01e-05,
        "MEAN_MOTION_DDOT": 0,
        "period": 1.616947022,
        "radius": 6992687.186,
        "altitude": 614.6871856,
        "angle": 150.6832208
    },
    {
        "OBJECT_NAME": "IRIDIUM 179",
        "OBJECT_ID": "2023-068W",
        "EPOCH": "2025-05-16T05:08:50.570016",
        "MEAN_MOTION": 14.80229969,
        "ECCENTRICITY": 0.0002573,
        "INCLINATION": 86.6835,
        "RA_OF_ASC_NODE": 198.943,
        "ARG_OF_PERICENTER": 97.6955,
        "MEAN_ANOMALY": 262.4559,
        "EPHEMERIS_TYPE": 0,
        "CLASSIFICATION_TYPE": "U",
        "NORAD_CAT_ID": 56730,
        "ELEMENT_SET_NO": 999,
        "REV_AT_EPOCH": 10764,
        "BSTAR": 0.000148,
        "MEAN_MOTION_DOT": 1.15e-05,
        "MEAN_MOTION_DDOT": 0,
        "period": 1.616940945,
        "radius": 6992669.666,
        "altitude": 614.6696656,
        "angle": 150.6840204
    }
]